{"fetched_at":"2026-07-16T17:46:10.611Z","source":"https://celestrak.org/NORAD/elements/gp.php?GROUP=spire&FORMAT=JSON","constellation":"spire","records":[{"OBJECT_NAME":"LEMUR-2-MYRA","OBJECT_ID":"2025-276EC","EPOCH":"2026-07-16T03:16:48.484128","CLASSIFICATION_TYPE":"U","MEAN_MOTION":15.00595023,"ECCENTRICITY":0.00186871,"INCLINATION":97.522,"RA_OF_ASC_NODE":267.0739,"ARG_OF_PERICENTER":51.4695,"MEAN_ANOMALY":308.8201,"EPHEMERIS_TYPE":0,"NORAD_CAT_ID":66787,"ELEMENT_SET_NO":999,"REV_AT_EPOCH":3455,"BSTAR":0.00025421771,"MEAN_MOTION_DOT":0.00003164,"MEAN_MOTION_DDOT":0},{"OBJECT_NAME":"LEMUR-2 FIKRETDENGIZ","OBJECT_ID":"2026-004A","EPOCH":"2026-07-16T07:27:09.911232","CLASSIFICATION_TYPE":"U","MEAN_MOTION":14.88520966,"ECCENTRICITY":0.0010117,"INCLINATION":97.8026,"RA_OF_ASC_NODE":195.4261,"ARG_OF_PERICENTER":52.732,"MEAN_ANOMALY":307.4818,"EPHEMERIS_TYPE":0,"NORAD_CAT_ID":67363,"ELEMENT_SET_NO":999,"REV_AT_EPOCH":2761,"BSTAR":0.00017464205,"MEAN_MOTION_DOT":0.0000157,"MEAN_MOTION_DDOT":0},{"OBJECT_NAME":"TWILIGHT-1 OBJECT B","OBJECT_ID":"2026-004B","EPOCH":"2026-07-16T06:44:35.264544","CLASSIFICATION_TYPE":"U","MEAN_MOTION":14.8779533,"ECCENTRICITY":0.00096711,"INCLINATION":97.8076,"RA_OF_ASC_NODE":195.3971,"ARG_OF_PERICENTER":42.7075,"MEAN_ANOMALY":317.4892,"EPHEMERIS_TYPE":0,"NORAD_CAT_ID":67364,"ELEMENT_SET_NO":999,"REV_AT_EPOCH":2761,"BSTAR":0.00010015262,"MEAN_MOTION_DOT":0.00000861,"MEAN_MOTION_DDOT":0},{"OBJECT_NAME":"LEMUR-2-MARIO-SOUSA","OBJECT_ID":"2026-004C","EPOCH":"2026-07-15T22:54:00.656928","CLASSIFICATION_TYPE":"U","MEAN_MOTION":14.88731264,"ECCENTRICITY":0.0009802,"INCLINATION":97.7998,"RA_OF_ASC_NODE":195.0701,"ARG_OF_PERICENTER":54.9216,"MEAN_ANOMALY":305.2919,"EPHEMERIS_TYPE":0,"NORAD_CAT_ID":67365,"ELEMENT_SET_NO":999,"REV_AT_EPOCH":2757,"BSTAR":0.00025951,"MEAN_MOTION_DOT":0.00002372,"MEAN_MOTION_DDOT":0},{"OBJECT_NAME":"LEMUR-2-SONNENBLUME","OBJECT_ID":"2026-004E","EPOCH":"2026-07-15T22:58:19.216704","CLASSIFICATION_TYPE":"U","MEAN_MOTION":14.88455287,"ECCENTRICITY":0.0009352,"INCLINATION":97.8001,"RA_OF_ASC_NODE":195.0453,"ARG_OF_PERICENTER":55.9946,"MEAN_ANOMALY":304.2157,"EPHEMERIS_TYPE":0,"NORAD_CAT_ID":67367,"ELEMENT_SET_NO":999,"REV_AT_EPOCH":2757,"BSTAR":0.00015379,"MEAN_MOTION_DOT":0.00001373,"MEAN_MOTION_DDOT":0},{"OBJECT_NAME":"LEMUR-2-WOBLER","OBJECT_ID":"2026-004F","EPOCH":"2026-07-16T06:46:39.404064","CLASSIFICATION_TYPE":"U","MEAN_MOTION":14.88702078,"ECCENTRICITY":0.00094151,"INCLINATION":97.805,"RA_OF_ASC_NODE":195.5177,"ARG_OF_PERICENTER":46.9431,"MEAN_ANOMALY":313.2573,"EPHEMERIS_TYPE":0,"NORAD_CAT_ID":67368,"ELEMENT_SET_NO":999,"REV_AT_EPOCH":2762,"BSTAR":0.00022604187,"MEAN_MOTION_DOT":0.00002057,"MEAN_MOTION_DDOT":0},{"OBJECT_NAME":"LEMUR-2-GRAM-E-SUE","OBJECT_ID":"2026-004H","EPOCH":"2026-07-16T00:08:15.547200","CLASSIFICATION_TYPE":"U","MEAN_MOTION":14.88591442,"ECCENTRICITY":0.00085507,"INCLINATION":97.7987,"RA_OF_ASC_NODE":195.1097,"ARG_OF_PERICENTER":58.8174,"MEAN_ANOMALY":301.388,"EPHEMERIS_TYPE":0,"NORAD_CAT_ID":67370,"ELEMENT_SET_NO":999,"REV_AT_EPOCH":2758,"BSTAR":0.00013656872,"MEAN_MOTION_DOT":0.00001218,"MEAN_MOTION_DDOT":0},{"OBJECT_NAME":"LEMUR-2-KATIE","OBJECT_ID":"2026-004AA","EPOCH":"2026-07-16T05:31:44.076000","CLASSIFICATION_TYPE":"U","MEAN_MOTION":14.90256414,"ECCENTRICITY":0.00034165,"INCLINATION":97.8044,"RA_OF_ASC_NODE":195.8859,"ARG_OF_PERICENTER":31.8343,"MEAN_ANOMALY":328.308,"EPHEMERIS_TYPE":0,"NORAD_CAT_ID":67387,"ELEMENT_SET_NO":999,"REV_AT_EPOCH":2763,"BSTAR":0.00023137516,"MEAN_MOTION_DOT":0.0000219,"MEAN_MOTION_DDOT":0},{"OBJECT_NAME":"LEMUR-2-HCS-BAZUS","OBJECT_ID":"2026-004AB","EPOCH":"2026-07-15T21:25:55.433280","CLASSIFICATION_TYPE":"U","MEAN_MOTION":14.90263817,"ECCENTRICITY":0.0002924,"INCLINATION":97.8038,"RA_OF_ASC_NODE":195.5306,"ARG_OF_PERICENTER":31.8037,"MEAN_ANOMALY":328.3357,"EPHEMERIS_TYPE":0,"NORAD_CAT_ID":67388,"ELEMENT_SET_NO":999,"REV_AT_EPOCH":2758,"BSTAR":0.00015797,"MEAN_MOTION_DOT":0.00001478,"MEAN_MOTION_DDOT":0}]}
